[{"OBJECT_NAME":"HAWK-11C","OBJECT_ID":"2024-247E","EPOCH":"2026-03-09T12:17:35.407968","MEAN_MOTION":15.2884802,"ECCENTRICITY":0.00059001,"INCLINATION":45.0045,"RA_OF_ASC_NODE":114.8762,"ARG_OF_PERICENTER":329.704,"MEAN_ANOMALY":30.3502,"EPHEMERIS_TYPE":0,"CLASSIFICATION_TYPE":"U","NORAD_CAT_ID":62381,"ELEMENT_SET_NO":999,"REV_AT_EPOCH":6774,"BSTAR":0.00033290115,"MEAN_MOTION_DOT":9.223e-5,"MEAN_MOTION_DDOT":0},{"OBJECT_NAME":"STARLINK-32938","OBJECT_ID":"2025-048U","EPOCH":"2026-03-09T02:42:48.949056","MEAN_MOTION":15.27619256,"ECCENTRICITY":0.0001638,"INCLINATION":42.9993,"RA_OF_ASC_NODE":88.5968,"ARG_OF_PERICENTER":281.6185,"MEAN_ANOMALY":78.4483,"EPHEMERIS_TYPE":0,"CLASSIFICATION_TYPE":"U","NORAD_CAT_ID":63201,"ELEMENT_SET_NO":999,"REV_AT_EPOCH":5700,"BSTAR":0.0010035032,"MEAN_MOTION_DOT":0.00027488,"MEAN_MOTION_DDOT":0}]
